#dP2024  3  2  0  0  0.00000000      97 __u+U IGS20 FIT  IAC
## 2303 518400.00000000   900.00000000 60371 0.0000000000000
+  119   C06C07C08C09C10C11C12C13C14C16C19C20C21C22C23C24C25
+        C26C27C28C29C30C32C33C34C35C36C37C38C39C40C41C42C43
+        C44C45C46E02E03E04E05E07E08E09E10E11E12E13E14E15E18
+        E19E21E24E25E26E27E30E31E33E34E36G01G02G03G04G05G06
+        G07G08G09G10G11G12G13G14G15G16G17G18G19G20G21G22G23
+        G24G25G26G27G28G29G30G31G32J02J03J04R01R02R03R04R05
+        R07R08R09R11R12R13R14R15R16R17R18R19R20R21R22R24R26
++         7  7  7  7  7  6  7  7  6  7  5  5  6  6  6  5  5
++         5  6  5  6  6  6  5  6  6  6  6  6  6  6  6  5  5
++         6  6  6  4  4  4  4  4  4  4  4  4  4  4  4  4  4
++         4  4  4  4  4  4  4  4  4  4  4  4  4  3  3  3  3
++         3  4  3  3  4  3  4  3  4  3  3  4  3  4  4  3  3
++         4  3  3  3  3  3  3  3  3 11 12 11  7  7  7  6  6
++         7  7  7  6  6  7  6  7  7  7  7  8  8  6  6  6 10
%c M  cc GPS ccc cccc cccc cccc cccc ccccc ccccc ccccc ccccc
%c cc cc ccc ccc cccc cccc cccc cccc ccccc ccccc ccccc ccccc
%f  1.2500000  1.025000000  0.00000000000  0.000000000000000
%f  0.0000000  0.000000000  0.00000000000  0.000000000000000
%i    0    0    0    0      0      0      0      0         0
%i    0    0    0    0      0      0      0      0         0
/* INFORMATION & ANALYSIS CENTER (IAC)            FINAL DATA
/* S/V CLOCKS ARE ALIGNED TO GNSS TIME                      
/* G:C1WC2W R:C1PC2P E:C1XC5X C:C2IC6I J:C1CC2S             
/* PCV:IGS20_2290 OL/AL:FES2004  NONE     YN ORB:CoN CLK:CoN
*  2024 03 02  8 15  0.00000000
PC06  -2011.352685  35471.536910 -22440.784602    245.376325
PC07 -13130.231130  26562.464617  30022.481086   -889.559285
PC08 -18184.736839  36867.540521  -9840.814569     -4.217432
PC09   3430.269605  38685.798773 -15156.608288   -564.455114
PC10  -3948.370807  27689.058298  31827.989739     62.484025
PC11 -19007.350197 -20400.877193   1163.366193    438.731094
PC12  -5537.476636 -22101.937054 -16078.209673   -204.365472
PC13 -11363.094653  37052.284723 -16760.400579    421.819944
PC14 -17158.999678  -9672.778096  19762.008012    312.568450
PC16  -4024.577298  33456.201709 -24845.013587   -371.993104
PC19  24232.758181   3493.763666 -13385.910270   -922.230223
PC20   9333.442790  13454.947031 -22584.923876   -216.146052
PC21  12736.531478 -16158.934377  18885.343767   -961.493992
PC22  26117.248878  -9014.144041   4033.215162    -89.809075
PC23 -17387.070492  11491.166451 -18564.597581   -778.045226
PC24  -2590.692043 -24525.480499 -13056.425261    934.385364
PC25 -14441.349619  -8358.377046 -22380.034283    339.428352
PC26   9564.150424 -25971.549137   3404.151718   -256.939304
PC27  -2787.993569  18360.469459  20804.686393    278.883091
PC28 -16502.528425   4856.869786  21978.158937    212.454186
PC29  22680.818315  13466.107673  -9106.300087    249.077283
PC30  13629.422471  22555.219485   9130.243375    -32.292796
PC32 -12675.849408  16235.473029 -18799.838748   -576.147195
PC33 -24167.631838  -3463.425180  13507.180193   -953.507950
PC34 -14782.656963 -22393.563288  -7727.138252    381.183044
PC35  16431.331395  -5439.728989 -21895.169156    420.881602
PC36  14052.370101   9178.466365  22310.173851      4.196038
PC37 -10406.173121  25625.336362  -3817.191497   -940.603420
PC38 -21574.613071  36273.724634  -1480.366137    140.190267
PC39  -7516.275808  29190.276084 -29329.605295     -7.384964
PC40 -18824.537696  19722.079954  32075.792745    -58.921725
PC41 -26348.302501   8595.072425  -3134.574835   -898.865022
PC42  -7509.969811 -14165.366006  22885.589725   -449.885586
PC43 -22591.934674 -14191.548219   8217.710815     62.543397
PC44   2319.504496 -18487.417945 -20800.089406    400.915289
PC45  17297.422198 -11622.208325  18539.608756    -73.371006
PC46   3045.232944  24099.528771  13759.938688   -128.278413
PE02  24383.439384 -16154.454070   4465.798664    107.849493
PE03  22203.341500  -5824.787523  18694.242459    -97.470146
PE04  -2854.516768  16902.493560 -24120.836794   -340.027154
PE05  28258.616023   8467.891807   2442.963322   4725.196080
PE07 -17482.123856 -18024.071387  15676.235167   -106.664976
PE08   3631.715158 -16522.160731  24292.613348   -232.431131
PE09  17440.149407  17950.001643 -15809.434205   -355.663622
PE10   4290.625423  29253.187926   1378.029815   -606.135820
PE11  10471.459948  26165.391445  -9021.221314   3208.536448
PE12  -1991.177942  27636.896439  10375.686280   -930.184345
PE13 -10127.017760 -26525.605379   8401.661785    -20.373926
PE14 -20458.035830 -12720.981845  -4807.797981     54.831584
PE15   2273.997059 -27437.550197 -10882.937429    -88.880131
PE18  30537.945419   8371.181732  -5049.023000    388.683000
PE19 -23642.225616   4036.366485 -17338.477972   -510.852487
PE21 -22090.380069    674.460446 -19702.761864   -581.815352
PE24   6399.890596  16220.936522  23899.071772   -628.379676
PE25  21885.441258   -308.962077  19920.226690      1.589848
PE26 -16606.194579  -9423.495381  22627.954040    384.552053
PE27  -6823.641396 -15901.861950 -24020.179956   -288.376806
PE30  12509.779930 -22907.506692 -13963.718274    -52.777215
PE31 -12305.893995  22922.459569  14122.742826    -17.271283
PE33 -13385.099639  11661.106652  23690.371732      8.412357
PE34  13147.377571 -12275.575674 -23509.386185    -97.671816
PE36  16403.191513  10119.507507 -22455.497805   -193.511263
PG01 -12354.825153   9572.075290  21073.262939    171.926009
PG02 -15651.103941    268.710635  21976.207445   -476.892082
PG03 -22174.857147  10387.241587   9994.226593    227.178665
PG04 -23676.957007    -50.656366 -12153.177552    305.001354
PG05  18363.982197    804.211575 -19375.843806   -163.854490
PG06   5657.447498  25843.272008  -1446.872513    385.202550
PG07  -7008.746377  20155.180535 -15012.794653    -74.760544
PG08 -25992.461540  -5284.803515   3682.290827     24.417791
PG09 -13746.907585  10555.673061 -20222.035721    110.504420
PG10   4903.009754 -19572.266783  17306.679493      0.957487
PG11  11809.125950  20115.627351 -12722.357152   -593.707101
PG12  22877.592559  -8372.061844  10216.221259   -483.259169
PG13  22488.693173  14017.955800  -3316.009784    630.478564
PG14  -8817.160817  20555.655957  14200.130604    339.925768
PG15  26314.479646   2583.843721   2990.312779    133.351715
PG16 -14786.158985  -7489.568291 -21179.024926   -350.557416
PG17   -429.899035  15891.551057  21677.600611    715.162756
PG18   6472.725018 -21001.660764 -14766.477369   -567.171011
PG19  10039.915519  17652.786019  17121.890027    448.238707
PG20   9779.477972  12169.515298 -21438.935254    385.464128
PG21 -16674.908604  -6312.550174  20447.571092    132.931843
PG22  -2040.119977  18360.224414  19615.314832     22.456521
PG23  15270.845491 -20465.121019   6966.699274    167.952302
PG24  16401.709316   2214.530166  20433.979092   -440.272095
PG25  20120.955756 -17047.990535   1097.297157    490.175544
PG26  -5838.034958 -15864.044613 -20561.085838    184.272890
PG27 -21947.634943 -13263.846251  -8009.185108     -8.591845
PG28  -5018.746328 -26048.111449   1349.547141   -149.757287
PG29  16063.675079  -7741.338668 -19768.287069   -605.797328
PG30    304.773883  25655.758594  -6164.873902   -425.362470
PG31 -10159.480804 -22800.876949  -8671.089130   -227.909340
PG32  -4253.112563 -16557.146102  20582.810092   -614.233594
PJ02 -30861.297651  28565.978163   8623.133616     -2.495587
PJ03 -25813.459186  24306.770183  27923.814303     -0.222579
PJ04 -31775.275747  22590.709614 -11089.086747     50.787528
PR01  17966.343300  -8979.534595  15739.546944     78.595589
PR02    425.260496 -10825.314276  23141.906187    -22.540335
PR03 -17561.651735  -7131.437690  17154.215427     95.581476
PR04 -25438.935981    197.586819   2003.502305    225.783196
PR05 -19800.450207   7431.981270 -14261.594889    127.768017
PR07  18212.600423   6783.059174 -16446.086791     77.020409
PR08  25430.198514   -576.748732  -1590.721007    -74.614294
PR09  -5303.828989  22874.784978   9878.660793    173.026114
PR11  13123.538742  -3438.453903  21610.264245     32.586573
PR12  14103.196456 -19723.038614   7916.423673     37.337599
PR13   7191.086743 -23246.275252  -7665.183611    -44.899245
PR14  -5448.073419 -12610.912443 -21491.546767     26.144400
PR15 -13694.955772   4808.003154 -20962.471438     81.716956
PR16 -14003.821366  19664.931040  -8184.578160     23.691700
PR17 -15300.850705 -19840.139409   4708.720433     65.589618
PR18 -15225.171090  -8425.333751  18692.005068    130.093115
PR19  -8669.203538   5733.515992  23294.868829   -267.848017
PR20   5282.281262  20981.945577  13479.607213   -109.134967
PR21  15184.435278  19916.019407  -4892.687988    -81.288341
PR22  14982.750760   7630.790122 -19148.197724    110.759568
PR24  -6340.389350 -21103.286834 -12826.458749    -46.129852
PR26  25376.017042   -227.385814  -2674.786932   -195.692548
EOF
